{
  "norad_id": 65763,
  "name": "KUIPER-00132",
  "history": [
    {
      "epoch": "2026-03-28T18:15:02.251008Z",
      "apogee_km": 449.24237646088295,
      "perigee_km": 440.293318005155,
      "latitude_deg": 2.105317054713275e-06,
      "longitude_deg": 170.93516002527497,
      "height_km": 442.0627043659069,
      "semi_major_axis_km": 6822.904847233019,
      "eccentricity": 0.00065581,
      "inclination_deg": 51.8582,
      "raan_deg": 270.8708,
      "arg_perigee_deg": 39.3224,
      "mean_anomaly_deg": 320.8239,
      "mean_motion_rev_day": 15.40454198
    }
  ]
}